CCSDS_OMM_VERS = 2.0
CREATION_DATE  = 
ORIGINATOR     = 

OBJECT_NAME    = CZ-2C R/B
OBJECT_ID      = 2022-132E
CENTER_NAME    = EARTH
REF_FRAME      = TEME
TIME_SYSTEM    = UTC
MEAN_ELEMENT_THEORY = SGP/SGP4

EPOCH          = 2025-12-09T00:02:54.826080
MEAN_MOTION    = 15.54463027
ECCENTRICITY   = .0023484
INCLINATION    = 97.2947
RA_OF_ASC_NODE = 339.1295
ARG_OF_PERICENTER = 69.3400
MEAN_ANOMALY   = 291.0369

EPHEMERIS_TYPE = 0
CLASSIFICATION_TYPE = U
NORAD_CAT_ID   = 54039
ELEMENT_SET_NO = 999
REV_AT_EPOCH   = 17625
BSTAR          = .58741E-3
MEAN_MOTION_DOT = .39112E-3
MEAN_MOTION_DDOT = 0

CCSDS_OMM_VERS = 2.0
CREATION_DATE  = 
ORIGINATOR     = 

OBJECT_NAME    = GSLV R/B
OBJECT_ID      = 2022-138AN
CENTER_NAME    = EARTH
REF_FRAME      = TEME
TIME_SYSTEM    = UTC
MEAN_ELEMENT_THEORY = SGP/SGP4

EPOCH          = 2025-12-09T02:38:42.577728
MEAN_MOTION    = 14.96100971
ECCENTRICITY   = .0023889
INCLINATION    = 87.3826
RA_OF_ASC_NODE = 196.6897
ARG_OF_PERICENTER = 117.5101
MEAN_ANOMALY   = 242.8562

EPHEMERIS_TYPE = 0
CLASSIFICATION_TYPE = U
NORAD_CAT_ID   = 54149
ELEMENT_SET_NO = 999
REV_AT_EPOCH   = 17038
BSTAR          = .24815E-3
MEAN_MOTION_DOT = .2833E-4
MEAN_MOTION_DDOT = 0

CCSDS_OMM_VERS = 2.0
CREATION_DATE  = 
ORIGINATOR     = 

OBJECT_NAME    = XRISM
OBJECT_ID      = 2023-137A
CENTER_NAME    = EARTH
REF_FRAME      = TEME
TIME_SYSTEM    = UTC
MEAN_ELEMENT_THEORY = SGP/SGP4

EPOCH          = 2025-12-08T20:51:11.161152
MEAN_MOTION    = 15.10278587
ECCENTRICITY   = .0007687
INCLINATION    = 31.0004
RA_OF_ASC_NODE = 150.5348
ARG_OF_PERICENTER = 206.2287
MEAN_ANOMALY   = 153.7962

EPHEMERIS_TYPE = 0
CLASSIFICATION_TYPE = U
NORAD_CAT_ID   = 57800
ELEMENT_SET_NO = 999
REV_AT_EPOCH   = 12404
BSTAR          = .36864E-3
MEAN_MOTION_DOT = .6285E-4
MEAN_MOTION_DDOT = 0

CCSDS_OMM_VERS = 2.0
CREATION_DATE  = 
ORIGINATOR     = 

OBJECT_NAME    = ACS3
OBJECT_ID      = 2024-077B
CENTER_NAME    = EARTH
REF_FRAME      = TEME
TIME_SYSTEM    = UTC
MEAN_ELEMENT_THEORY = SGP/SGP4

EPOCH          = 2025-12-09T03:25:36.242976
MEAN_MOTION    = 13.85214079
ECCENTRICITY   = .0077956
INCLINATION    = 97.2717
RA_OF_ASC_NODE = 299.5519
ARG_OF_PERICENTER = 346.5274
MEAN_ANOMALY   = 13.3806

EPHEMERIS_TYPE = 0
CLASSIFICATION_TYPE = U
NORAD_CAT_ID   = 59588
ELEMENT_SET_NO = 999
REV_AT_EPOCH   = 8164
BSTAR          = .22935E-1
MEAN_MOTION_DOT = .26709E-3
MEAN_MOTION_DDOT = 0

CCSDS_OMM_VERS = 2.0
CREATION_DATE  = 
ORIGINATOR     = 

OBJECT_NAME    = SZ-21 MODULE
OBJECT_ID      = 2025-246C
CENTER_NAME    = EARTH
REF_FRAME      = TEME
TIME_SYSTEM    = UTC
MEAN_ELEMENT_THEORY = SGP/SGP4

EPOCH          = 2025-12-09T03:37:53.464800
MEAN_MOTION    = 15.62218572
ECCENTRICITY   = .000628
INCLINATION    = 41.4773
RA_OF_ASC_NODE = 37.9323
ARG_OF_PERICENTER = 240.6924
MEAN_ANOMALY   = 119.3288

EPHEMERIS_TYPE = 0
CLASSIFICATION_TYPE = U
NORAD_CAT_ID   = 66515
ELEMENT_SET_NO = 999
REV_AT_EPOCH   = 388
BSTAR          = .34803E-3
MEAN_MOTION_DOT = .31342E-3
MEAN_MOTION_DDOT = 0

